{
  "norad_id": 68051,
  "name": "STARLINK-35911",
  "history": [
    {
      "epoch": "2026-03-28T22:00:01.999584Z",
      "apogee_km": 344.67559363266537,
      "perigee_km": 342.85960388626427,
      "latitude_deg": -18.664722653480002,
      "longitude_deg": 4.033985616912915,
      "height_km": 349.0564855973298,
      "semi_major_axis_km": 6721.9045987594645,
      "eccentricity": 0.00013508,
      "inclination_deg": 53.1591,
      "raan_deg": 325.797,
      "arg_perigee_deg": 103.9255,
      "mean_anomaly_deg": 99.3974,
      "mean_motion_rev_day": 15.75303527
    },
    {
      "epoch": "2026-03-29T04:00:01.999584Z",
      "apogee_km": 344.99789072358453,
      "perigee_km": 343.40066362412836,
      "latitude_deg": -1.616795706793507,
      "longitude_deg": -100.82498998121551,
      "height_km": 345.43822783458666,
      "semi_major_axis_km": 6722.336277173856,
      "eccentricity": 0.0001188,
      "inclination_deg": 53.159,
      "raan_deg": 324.5551,
      "arg_perigee_deg": 84.8572,
      "mean_anomaly_deg": 97.0351,
      "mean_motion_rev_day": 15.75151791
    }
  ]
}